OBJECT_NAME,OBJECT_ID,EPOCH,MEAN_MOTION,ECCENTRICITY,INCLINATION,RA_OF_ASC_NODE,ARG_OF_PERICENTER,MEAN_ANOMALY,EPHEMERIS_TYPE,CLASSIFICATION_TYPE,NORAD_CAT_ID,ELEMENT_SET_NO,REV_AT_EPOCH,BSTAR,MEAN_MOTION_DOT,MEAN_MOTION_DDOT
STARLINK-36150,2025-294B,2026-06-10T11:15:15.203808,15.27597539,.0001101,43.0020,233.6819,263.2592,96.8134,0,U,67031,999,2899,.55626E-3,.15084E-3,0
STARLINK-36131,2025-294C,2026-06-10T11:31:54.246144,15.27625795,.0001114,42.9981,233.7662,263.5223,96.5502,0,U,67032,999,2899,.77296E-3,.21099E-3,0
STARLINK-36137,2025-294D,2026-06-10T11:26:21.291648,15.27597589,.000044,42.9996,233.7370,263.1456,96.9346,0,U,67033,999,2899,.66283E-3,.18032E-3,0
STARLINK-36140,2025-294E,2026-06-09T22:29:15.428832,15.27628882,.00036762,43.0078,237.4277,270.6837,89.3594,0,U,67034,999,2890,.72227958E-3,.19698E-3,0
STARLINK-36085,2025-294F,2026-06-10T11:06:13.330656,15.27601126,.0000715,43.0034,234.4863,109.7418,250.3511,0,U,67035,999,2898,.56644E-3,.15367E-3,0
STARLINK-36125,2025-294G,2026-06-10T11:57:48.690144,15.27592393,.0000928,43.0086,233.8949,274.2390,85.8355,0,U,67036,999,2899,.43937E-3,.11852E-3,0
STARLINK-35732,2025-294H,2026-06-09T22:21:51.219648,15.27609468,.00012243,43.0018,237.3863,271.5273,88.5438,0,U,67037,999,2890,.54659358E-3,.14823E-3,0
STARLINK-35775,2025-294J,2026-06-10T11:39:18.693792,15.27597081,.000038,43.0062,233.8017,220.6209,139.4614,0,U,67038,999,2900,.79037E-3,.21562E-3,0
STARLINK-35705,2025-294K,2026-06-10T11:46:42.686112,15.27602849,.0000357,42.9993,233.8313,228.3614,131.7207,0,U,67039,999,2899,.91372E-3,.24984E-3,0
STARLINK-35786,2025-294L,2026-06-09T22:18:09.786816,15.27601388,.00012651,43.0047,237.3705,285.0196,75.0516,0,U,67040,999,2890,.52841666E-3,.14316E-3,0
STARLINK-35765,2025-294M,2026-06-10T12:08:54.930048,15.27583468,.0001446,43.0008,233.9550,273.3434,86.7252,0,U,67041,999,2899,.54382E-3,.14734E-3,0
STARLINK-35773,2025-294N,2026-06-10T12:05:13.011648,15.27595152,.0000658,42.9996,233.9307,288.4924,71.5856,0,U,67042,999,2899,.64638E-3,.17575E-3,0
STARLINK-35901,2025-294P,2026-06-10T12:16:18.488640,15.27603280,.000108,43.0012,233.9931,282.2538,77.8193,0,U,67043,999,2899,.23214E-3,.6136E-4,0
STARLINK-35884,2025-294Q,2026-06-10T11:20:48.478848,15.27598359,.0001365,43.0003,233.7048,264.7833,95.2863,0,U,67044,999,2899,.8293E-3,.22641E-3,0
STARLINK-35891,2025-294R,2026-06-09T22:27:24.629472,15.27616453,.00014099,43.0009,237.4111,279.0787,80.9905,0,U,67045,999,2890,.60249331E-3,.16372E-3,0
STARLINK-35721,2025-294S,2026-06-09T05:00:35.289792,15.27602914,.0001154,43.0003,241.4170,266.3689,93.7030,0,U,67046,999,2879,.51131E-3,.13844E-3,0
STARLINK-35779,2025-294T,2026-06-10T11:54:06.839136,15.27597267,.0000696,43.0080,233.8788,254.1895,105.8880,0,U,67047,999,2899,.58366E-3,.15842E-3,0
STARLINK-35905,2025-294U,2026-06-10T12:10:45.702624,15.27593507,.0000892,43.0010,233.9658,142.3119,217.7796,0,U,67048,999,2899,.45581E-3,.12307E-3,0
STARLINK-35877,2025-294V,2026-06-10T00:00:04.000320,15.27586036,.00014904,43.0029,237.0190,272.6951,95.7069,0,U,67049,999,583,.3218851E-3,.8607E-4,0
STARLINK-36078,2025-294W,2026-06-10T11:37:27.219648,15.27598270,.000111,43.0023,233.7837,279.6396,80.4330,0,U,67050,999,2899,.60974E-3,.16564E-3,0
STARLINK-35706,2025-294X,2026-06-10T12:03:21.566016,15.27592438,.0001366,42.9998,233.9197,268.3997,91.6699,0,U,67051,999,2899,.33771E-3,.9046E-4,0
STARLINK-35720,2025-294Y,2026-06-10T11:52:15.445344,15.27591593,.000129,42.9988,233.8597,279.8615,80.2091,0,U,67052,999,2899,.68621E-3,.18675E-3,0
STARLINK-35739,2025-294Z,2026-06-10T12:18:09.764064,15.27612473,.0000486,43.0130,233.9987,51.6232,308.4663,0,U,67053,999,2899,.67606E-3,.18406E-3,0
STARLINK-35754,2025-294AA,2026-06-10T11:55:57.463968,15.27603389,.0000686,42.9998,233.8818,272.0760,88.0013,0,U,67054,999,2899,.80362E-3,.21933E-3,0
STARLINK-35790,2025-294AB,2026-06-09T22:14:27.691296,15.27586178,.00014795,43.0011,237.3431,267.3504,92.7178,0,U,67055,999,2890,.53457692E-3,.1448E-3,0
STARLINK-36143,2025-294AC,2026-06-10T11:48:33.788736,15.27594080,.0000512,43.0074,233.8453,253.8359,106.2436,0,U,67056,999,2899,.66675E-3,.18138E-3,0
STARLINK-36141,2025-294AD,2026-06-09T21:35:35.750112,15.27610221,.00024257,42.9949,237.1329,287.0936,72.9650,0,U,67057,999,2890,.84553414E-3,.23101E-3,0
STARLINK-35767,2025-294AE,2026-06-09T22:25:32.817504,15.27612556,.00040039,43.0019,237.4021,266.3278,93.7116,0,U,67058,999,2890,.69199407E-3,.1885E-3,0
HULIANWANG DIGUI-119,2025-295A,2026-06-10T09:22:13.316160,13.29328824,.0000975,50.0044,50.1594,57.8102,302.2865,0,U,67059,999,2459,.55535E-4,-.98E-6,0
HULIANWANG DIGUI-120,2025-295B,2026-06-10T08:58:10.024032,13.29328722,.0000972,50.0050,50.0810,60.6639,299.4330,0,U,67060,999,2459,.66836E-4,-.93E-6,0
