STARLINK-36150          
1 67031U 25294B   26161.46892597  .00015084  00000+0  55626-3 0  9999
2 67031  43.0020 233.6819 0001101 263.2592  96.8134 15.27597539 28994
STARLINK-36131          
1 67032U 25294C   26161.48048896  .00021099  00000+0  77296-3 0  9997
2 67032  42.9981 233.7662 0001114 263.5223  96.5502 15.27625795 28996
STARLINK-36137          
1 67033U 25294D   26161.47663532  .00018032  00000+0  66283-3 0  9994
2 67033  42.9996 233.7370 0000440 263.1456  96.9346 15.27597589 28993
STARLINK-36140          
1 67034U 25294E   26160.93698413  .00019698  00000+0  72228-3 0  9996
2 67034  43.0078 237.4277 0003676 270.6837  89.3594 15.27628882 28907
STARLINK-36085          
1 67035U 25294F   26161.46265429  .00015367  00000+0  56644-3 0  9996
2 67035  43.0034 234.4863 0000715 109.7418 250.3511 15.27601126 28985
STARLINK-36125          
1 67036U 25294G   26161.49848021  .00011852  00000+0  43937-3 0  9991
2 67036  43.0086 233.8949 0000928 274.2390  85.8355 15.27592393 28997
STARLINK-35732          
1 67037U 25294H   26160.93184282  .00014823  00000+0  54659-3 0  9996
2 67037  43.0018 237.3863 0001224 271.5273  88.5438 15.27609468 28902
STARLINK-35775          
1 67038U 25294J   26161.48563303  .00021562  00000+0  79037-3 0  9998
2 67038  43.0062 233.8017 0000380 220.6209 139.4614 15.27597081 29001
STARLINK-35705          
1 67039U 25294K   26161.49077183  .00024984  00000+0  91372-3 0  9993
2 67039  42.9993 233.8313 0000357 228.3614 131.7207 15.27602849 28990
STARLINK-35786          
1 67040U 25294L   26160.92927994  .00014316  00000+0  52842-3 0  9993
2 67040  43.0047 237.3705 0001265 285.0196  75.0516 15.27601388 28903
STARLINK-35765          
1 67041U 25294M   26161.50619132  .00014734  00000+0  54382-3 0  9996
2 67041  43.0008 233.9550 0001446 273.3434  86.7252 15.27583468 28990
STARLINK-35773          
1 67042U 25294N   26161.50362282  .00017575  00000+0  64638-3 0  9999
2 67042  42.9996 233.9307 0000658 288.4924  71.5856 15.27595152 28995
STARLINK-35901          
1 67043U 25294P   26161.51132510  .00006136  00000+0  23214-3 0  9996
2 67043  43.0012 233.9931 0001080 282.2538  77.8193 15.27603280 28998
STARLINK-35884          
1 67044U 25294Q   26161.47278332  .00022641  00000+0  82930-3 0  9994
2 67044  43.0003 233.7048 0001365 264.7833  95.2863 15.27598359 28993
STARLINK-35891          
1 67045U 25294R   26160.93570173  .00016372  00000+0  60249-3 0  9996
2 67045  43.0009 237.4111 0001409 279.0787  80.9905 15.27616453 28903
STARLINK-35721          
1 67046U 25294S   26160.20874178  .00013844  00000+0  51131-3 0  9990
2 67046  43.0003 241.4170 0001154 266.3689  93.7030 15.27602914 28790
STARLINK-35779          
1 67047U 25294T   26161.49591249  .00015842  00000+0  58366-3 0  9995
2 67047  43.0080 233.8788 0000696 254.1895 105.8880 15.27597267 28994
STARLINK-35905          
1 67048U 25294U   26161.50747341  .00012307  00000+0  45581-3 0  9992
2 67048  43.0010 233.9658 0000892 142.3119 217.7796 15.27593507 28992
STARLINK-35877          
1 67049U 25294V   26161.00004630  .00008607  00000+0  32189-3 0  9993
2 67049  43.0029 237.0190 0001490 272.6951  95.7069 15.27586036  5839
STARLINK-36078          
1 67050U 25294W   26161.48434282  .00016564  00000+0  60974-3 0  9991
2 67050  43.0023 233.7837 0001110 279.6396  80.4330 15.27598270 28992
STARLINK-35706          
1 67051U 25294X   26161.50233294  .00009046  00000+0  33771-3 0  9997
2 67051  42.9998 233.9197 0001366 268.3997  91.6699 15.27592438 28990
STARLINK-35720          
1 67052U 25294Y   26161.49462321  .00018675  00000+0  68621-3 0  9991
2 67052  42.9988 233.8597 0001290 279.8615  80.2091 15.27591593 28994
STARLINK-35739          
1 67053U 25294Z   26161.51261301  .00018406  00000+0  67606-3 0  9994
2 67053  43.0130 233.9987 0000486  51.6232 308.4663 15.27612473 28998
STARLINK-35754          
1 67054U 25294AA  26161.49719287  .00021933  00000+0  80362-3 0  9996
2 67054  42.9998 233.8818 0000686 272.0760  88.0013 15.27603389 28994
STARLINK-35790          
1 67055U 25294AB  26160.92670939  .00014480  00000+0  53458-3 0  9999
2 67055  43.0011 237.3431 0001479 267.3504  92.7178 15.27586178 28908
STARLINK-36143          
1 67056U 25294AC  26161.49205774  .00018138  00000+0  66675-3 0  9993
2 67056  43.0074 233.8453 0000512 253.8359 106.2436 15.27594080 28996
STARLINK-36141          
1 67057U 25294AD  26160.89971933  .00023101  00000+0  84553-3 0  9995
2 67057  42.9949 237.1329 0002425 287.0936  72.9650 15.27610221 28904
STARLINK-35767          
1 67058U 25294AE  26160.93440761  .00018850  00000+0  69199-3 0  9995
2 67058  43.0019 237.4021 0004003 266.3278  93.7116 15.27612556 28901
HULIANWANG DIGUI-119    
1 67059U 25295A   26161.39043190 -.00000098  00000+0  55535-4 0  9999
2 67059  50.0044  50.1594 0000975  57.8102 302.2865 13.29328824 24598
HULIANWANG DIGUI-120    
1 67060U 25295B   26161.37372713 -.00000093  00000+0  66836-4 0  9996
2 67060  50.0050  50.0810 0000972  60.6639 299.4330 13.29328722 24592
